{
  "type": "FeatureCollection",
  "features": [
    {
      "type": "Feature",
      "properties": {
        "norad_id": 43286,
        "name": "IRNSS-1I",
        "group": "gnss",
        "lat": 21.663456119704946,
        "lon": 122.51195750947099,
        "alt_km": 35846.20165217076,
        "timestamp": "2025-12-08T23:34:04.212276+00:00",
        "meta_object_name": "IRNSS-1I",
        "meta_object_id": "2018-035A",
        "meta_epoch": "2025-12-07T20:44:32.673984",
        "meta_mean_motion": 1.00269085,
        "meta_eccentricity": 0.00219299,
        "meta_inclination": 29.1385,
        "meta_ra_of_asc_node": 77.1731,
        "meta_arg_of_pericenter": 181.2064,
        "meta_mean_anomaly": 184.6969,
        "meta_ephemeris_type": 0,
        "meta_classification_type": "U",
        "meta_norad_cat_id": 43286,
        "meta_element_set_no": 999,
        "meta_rev_at_epoch": 2816,
        "meta_bstar": 0,
        "meta_mean_motion_dot": 7.4e-07,
        "meta_mean_motion_ddot": 0,
        "tle_line1": "1 43286U 18035A   25341.86426706  .00000074  00000+0  00000+0 0  9993",
        "tle_line2": "2 43286  29.1385  77.1731 0021929 181.2064 184.6969  1.00269085 28165"
      },
      "geometry": {
        "type": "Point",
        "coordinates": [
          122.51195750947099,
          21.663456119704946
        ]
      }
    },
    {
      "type": "Feature",
      "properties": {
        "norad_id": 43508,
        "name": "COSMOS 2527 (756)",
        "group": "gnss",
        "lat": -35.59239769922129,
        "lon": 61.218203204754445,
        "alt_km": 19136.377874818947,
        "timestamp": "2025-12-08T23:34:04.212290+00:00",
        "meta_object_name": "COSMOS 2527 (756)",
        "meta_object_id": "2018-053A",
        "meta_epoch": "2025-12-08T13:33:02.442240",
        "meta_mean_motion": 2.1310206,
        "meta_eccentricity": 0.00087559,
        "meta_inclination": 65.4701,
        "meta_ra_of_asc_node": 80.2713,
        "meta_arg_of_pericenter": 225.5022,
        "meta_mean_anomaly": 134.4409,
        "meta_ephemeris_type": 0,
        "meta_classification_type": "U",
        "meta_norad_cat_id": 43508,
        "meta_element_set_no": 999,
        "meta_rev_at_epoch": 5821,
        "meta_bstar": 0,
        "meta_mean_motion_dot": -1e-07,
        "meta_mean_motion_ddot": 0,
        "tle_line1": "1 43508U 18053A   25342.56461160 -.00000010  00000+0  00000+0 0  9992",
        "tle_line2": "2 43508  65.4701  80.2713 0008755 225.5022 134.4409  2.13102060 58215"
      },
      "geometry": {
        "type": "Point",
        "coordinates": [
          61.218203204754445,
          -35.59239769922129
        ]
      }
    },
    {
      "type": "Feature",
      "properties": {
        "norad_id": 43539,
        "name": "BEIDOU-2 IGSO-7 (C16)",
        "group": "gnss",
        "lat": 15.13174483824787,
        "lon": 175.56227396517156,
        "alt_km": 36100.122750340386,
        "timestamp": "2025-12-08T23:34:04.212301+00:00",
        "meta_object_name": "BEIDOU-2 IGSO-7 (C16)",
        "meta_object_id": "2018-057A",
        "meta_epoch": "2025-12-08T10:41:53.941344",
        "meta_mean_motion": 1.00258189,
        "meta_eccentricity": 0.00925204,
        "meta_inclination": 55.1743,
        "meta_ra_of_asc_node": 164.7087,
        "meta_arg_of_pericenter": 235.2301,
        "meta_mean_anomaly": 309.1425,
        "meta_ephemeris_type": 0,
        "meta_classification_type": "U",
        "meta_norad_cat_id": 43539,
        "meta_element_set_no": 999,
        "meta_rev_at_epoch": 2721,
        "meta_bstar": 0,
        "meta_mean_motion_dot": -7e-07,
        "meta_mean_motion_ddot": 0,
        "tle_line1": "1 43539U 18057A   25342.44576321 -.00000070  00000+0  00000+0 0  9999",
        "tle_line2": "2 43539  55.1743 164.7087 0092520 235.2301 309.1425  1.00258189 27218"
      },
      "geometry": {
        "type": "Point",
        "coordinates": [
          175.56227396517156,
          15.13174483824787
        ]
      }
    },
    {
      "type": "Feature",
      "properties": {
        "norad_id": 43564,
        "name": "GSAT0221 (GALILEO 25)",
        "group": "gnss",
        "lat": -15.027350118031483,
        "lon": -23.04226831093381,
        "alt_km": 23214.42084205376,
        "timestamp": "2025-12-08T23:34:04.212313+00:00",
        "meta_object_name": "GSAT0221 (GALILEO 25)",
        "meta_object_id": "2018-060A",
        "meta_epoch": "2025-12-06T15:57:28.986048",
        "meta_mean_motion": 1.70475679,
        "meta_eccentricity": 0.00066883,
        "meta_inclination": 57.2291,
        "meta_ra_of_asc_node": 346.9817,
        "meta_arg_of_pericenter": 281.5609,
        "meta_mean_anomaly": 78.3858,
        "meta_ephemeris_type": 0,
        "meta_classification_type": "U",
        "meta_norad_cat_id": 43564,
        "meta_element_set_no": 999,
        "meta_rev_at_epoch": 4588,
        "meta_bstar": 0,
        "meta_mean_motion_dot": -8.1e-07,
        "meta_mean_motion_ddot": 0,
        "tle_line1": "1 43564U 18060A   25340.66491882 -.00000081  00000+0  00000+0 0  9993",
        "tle_line2": "2 43564  57.2291 346.9817 0006688 281.5609  78.3858  1.70475679 45887"
      },
      "geometry": {
        "type": "Point",
        "coordinates": [
          -23.04226831093381,
          -15.027350118031483
        ]
      }
    },
    {
      "type": "Feature",
      "properties": {
        "norad_id": 43565,
        "name": "GSAT0222 (GALILEO 26)",
        "group": "gnss",
        "lat": -22.72189617393497,
        "lon": -177.43096327572715,
        "alt_km": 23214.567819967055,
        "timestamp": "2025-12-08T23:34:04.212334+00:00",
        "meta_object_name": "GSAT0222 (GALILEO 26)",
        "meta_object_id": "2018-060B",
        "meta_epoch": "2025-12-08T01:22:40.600704",
        "meta_mean_motion": 1.70475416,
        "meta_eccentricity": 0.00061718,
        "meta_inclination": 57.2323,
        "meta_ra_of_asc_node": 346.9471,
        "meta_arg_of_pericenter": 262.1497,
        "meta_mean_anomaly": 97.7982,
        "meta_ephemeris_type": 0,
        "meta_classification_type": "U",
        "meta_norad_cat_id": 43565,
        "meta_element_set_no": 999,
        "meta_rev_at_epoch": 4595,
        "meta_bstar": 0,
        "meta_mean_motion_dot": -8.5e-07,
        "meta_mean_motion_ddot": 0,
        "tle_line1": "1 43565U 18060B   25342.05741436 -.00000085  00000+0  00000+0 0  9996",
        "tle_line2": "2 43565  57.2323 346.9471 0006171 262.1497  97.7982  1.70475416 45957"
      },
      "geometry": {
        "type": "Point",
        "coordinates": [
          -177.43096327572715,
          -22.72189617393497
        ]
      }
    },
    {
      "type": "Feature",
      "properties": {
        "norad_id": 43566,
        "name": "GSAT0219 (GALILEO 23)",
        "group": "gnss",
        "lat": 52.954744196914085,
        "lon": 45.50881691707968,
        "alt_km": 23230.063564708373,
        "timestamp": "2025-12-08T23:34:04.212346+00:00",
        "meta_object_name": "GSAT0219 (GALILEO 23)",
        "meta_object_id": "2018-060C",
        "meta_epoch": "2025-12-07T16:36:27.181728",
        "meta_mean_motion": 1.7047564,
        "meta_eccentricity": 0.00057893,
        "meta_inclination": 57.2316,
        "meta_ra_of_asc_node": 346.9585,
        "meta_arg_of_pericenter": 285.9629,
        "meta_mean_anomaly": 73.992,
        "meta_ephemeris_type": 0,
        "meta_classification_type": "U",
        "meta_norad_cat_id": 43566,
        "meta_element_set_no": 999,
        "meta_rev_at_epoch": 4592,
        "meta_bstar": 0,
        "meta_mean_motion_dot": -8.4e-07,
        "meta_mean_motion_ddot": 0,
        "tle_line1": "1 43566U 18060C   25341.69198127 -.00000084  00000+0  00000+0 0  9998",
        "tle_line2": "2 43566  57.2316 346.9585 0005789 285.9629  73.9920  1.70475640 45924"
      },
      "geometry": {
        "type": "Point",
        "coordinates": [
          45.50881691707968,
          52.954744196914085
        ]
      }
    },
    {
      "type": "Feature",
      "properties": {
        "norad_id": 43567,
        "name": "GSAT0220 (GALILEO 24)",
        "group": "gnss",
        "lat": -49.03103375887213,
        "lon": -60.968086310491806,
        "alt_km": 23209.718677571465,
        "timestamp": "2025-12-08T23:34:04.212357+00:00",
        "meta_object_name": "GSAT0220 (GALILEO 24)",
        "meta_object_id": "2018-060D",
        "meta_epoch": "2025-12-07T07:49:54.342624",
        "meta_mean_motion": 1.70475454,
        "meta_eccentricity": 0.00061757,
        "meta_inclination": 57.2312,
        "meta_ra_of_asc_node": 346.9681,
        "meta_arg_of_pericenter": 282.9528,
        "meta_mean_anomaly": 76.9979,
        "meta_ephemeris_type": 0,
        "meta_classification_type": "U",
        "meta_norad_cat_id": 43567,
        "meta_element_set_no": 999,
        "meta_rev_at_epoch": 4590,
        "meta_bstar": 0,
        "meta_mean_motion_dot": -8.3e-07,
        "meta_mean_motion_ddot": 0,
        "tle_line1": "1 43567U 18060D   25341.32632341 -.00000083  00000+0  00000+0 0  9999",
        "tle_line2": "2 43567  57.2312 346.9681 0006175 282.9528  76.9979  1.70475454 45901"
      },
      "geometry": {
        "type": "Point",
        "coordinates": [
          -60.968086310491806,
          -49.03103375887213
        ]
      }
    }
  ]
}